CCSDS_OMM_VERS = 2.0
CREATION_DATE  = 
ORIGINATOR     = 

OBJECT_NAME    = STARLINK-36673
OBJECT_ID      = 2026-022N
CENTER_NAME    = EARTH
REF_FRAME      = TEME
TIME_SYSTEM    = UTC
MEAN_ELEMENT_THEORY = SGP/SGP4

EPOCH          = 2026-02-23T13:05:26.198304
MEAN_MOTION    = 15.75207328
ECCENTRICITY   = .00013635
INCLINATION    = 97.2842
RA_OF_ASC_NODE = 87.8442
ARG_OF_PERICENTER = 56.6760
MEAN_ANOMALY   = 303.4635

EPHEMERIS_TYPE = 0
CLASSIFICATION_TYPE = U
NORAD_CAT_ID   = 67660
ELEMENT_SET_NO = 999
REV_AT_EPOCH   = 332
BSTAR          = .16032523E-2
MEAN_MOTION_DOT = .246214E-2
MEAN_MOTION_DDOT = 0

CCSDS_OMM_VERS = 2.0
CREATION_DATE  = 
ORIGINATOR     = 

OBJECT_NAME    = STARLINK-36674
OBJECT_ID      = 2026-022P
CENTER_NAME    = EARTH
REF_FRAME      = TEME
TIME_SYSTEM    = UTC
MEAN_ELEMENT_THEORY = SGP/SGP4

EPOCH          = 2026-02-23T13:03:23.868864
MEAN_MOTION    = 15.75251791
ECCENTRICITY   = .0000687
INCLINATION    = 97.2841
RA_OF_ASC_NODE = 87.8465
ARG_OF_PERICENTER = 36.2270
MEAN_ANOMALY   = 323.9042

EPHEMERIS_TYPE = 0
CLASSIFICATION_TYPE = U
NORAD_CAT_ID   = 67661
ELEMENT_SET_NO = 999
REV_AT_EPOCH   = 332
BSTAR          = .19441997E-2
MEAN_MOTION_DOT = .301137E-2
MEAN_MOTION_DDOT = 0

CCSDS_OMM_VERS = 2.0
CREATION_DATE  = 
ORIGINATOR     = 

OBJECT_NAME    = STARLINK-36700
OBJECT_ID      = 2026-022Q
CENTER_NAME    = EARTH
REF_FRAME      = TEME
TIME_SYSTEM    = UTC
MEAN_ELEMENT_THEORY = SGP/SGP4

EPOCH          = 2026-02-23T08:25:54.340032
MEAN_MOTION    = 15.75298991
ECCENTRICITY   = .00013317
INCLINATION    = 97.2845
RA_OF_ASC_NODE = 87.6491
ARG_OF_PERICENTER = 94.3877
MEAN_ANOMALY   = 265.7541

EPHEMERIS_TYPE = 0
CLASSIFICATION_TYPE = U
NORAD_CAT_ID   = 67662
ELEMENT_SET_NO = 999
REV_AT_EPOCH   = 329
BSTAR          = .23350622E-2
MEAN_MOTION_DOT = .365197E-2
MEAN_MOTION_DDOT = 0

CCSDS_OMM_VERS = 2.0
CREATION_DATE  = 
ORIGINATOR     = 

OBJECT_NAME    = STARLINK-36675
OBJECT_ID      = 2026-022R
CENTER_NAME    = EARTH
REF_FRAME      = TEME
TIME_SYSTEM    = UTC
MEAN_ELEMENT_THEORY = SGP/SGP4

EPOCH          = 2026-02-23T00:50:32.157024
MEAN_MOTION    = 15.75296893
ECCENTRICITY   = .00017092
INCLINATION    = 97.2840
RA_OF_ASC_NODE = 87.3139
ARG_OF_PERICENTER = 105.7300
MEAN_ANOMALY   = 254.4154

EPHEMERIS_TYPE = 0
CLASSIFICATION_TYPE = U
NORAD_CAT_ID   = 67663
ELEMENT_SET_NO = 999
REV_AT_EPOCH   = 324
BSTAR          = .19883197E-2
MEAN_MOTION_DOT = .308846E-2
MEAN_MOTION_DDOT = 0

CCSDS_OMM_VERS = 2.0
CREATION_DATE  = 
ORIGINATOR     = 

OBJECT_NAME    = STARLINK-36404
OBJECT_ID      = 2026-022S
CENTER_NAME    = EARTH
REF_FRAME      = TEME
TIME_SYSTEM    = UTC
MEAN_ELEMENT_THEORY = SGP/SGP4

EPOCH          = 2026-02-23T08:23:22.036704
MEAN_MOTION    = 15.75240633
ECCENTRICITY   = .00026047
INCLINATION    = 97.2849
RA_OF_ASC_NODE = 87.6502
ARG_OF_PERICENTER = 93.7245
MEAN_ANOMALY   = 266.4318

EPHEMERIS_TYPE = 0
CLASSIFICATION_TYPE = U
NORAD_CAT_ID   = 67664
ELEMENT_SET_NO = 999
REV_AT_EPOCH   = 329
BSTAR          = .17453281E-2
MEAN_MOTION_DOT = .269171E-2
MEAN_MOTION_DDOT = 0

CCSDS_OMM_VERS = 2.0
CREATION_DATE  = 
ORIGINATOR     = 

OBJECT_NAME    = STARLINK-36399
OBJECT_ID      = 2026-022T
CENTER_NAME    = EARTH
REF_FRAME      = TEME
TIME_SYSTEM    = UTC
MEAN_ELEMENT_THEORY = SGP/SGP4

EPOCH          = 2026-02-23T08:22:21.058176
MEAN_MOTION    = 15.75248091
ECCENTRICITY   = .00023104
INCLINATION    = 97.2850
RA_OF_ASC_NODE = 87.6515
ARG_OF_PERICENTER = 109.8492
MEAN_ANOMALY   = 250.3022

EPHEMERIS_TYPE = 0
CLASSIFICATION_TYPE = U
NORAD_CAT_ID   = 67665
ELEMENT_SET_NO = 999
REV_AT_EPOCH   = 329
BSTAR          = .18709136E-2
MEAN_MOTION_DOT = .289324E-2
MEAN_MOTION_DDOT = 0

CCSDS_OMM_VERS = 2.0
CREATION_DATE  = 
ORIGINATOR     = 

OBJECT_NAME    = STARLINK-36365
OBJECT_ID      = 2026-022U
CENTER_NAME    = EARTH
REF_FRAME      = TEME
TIME_SYSTEM    = UTC
MEAN_ELEMENT_THEORY = SGP/SGP4

EPOCH          = 2026-02-23T00:42:54.958464
MEAN_MOTION    = 15.75301680
ECCENTRICITY   = .0000642
INCLINATION    = 97.2851
RA_OF_ASC_NODE = 87.3204
ARG_OF_PERICENTER = 62.9683
MEAN_ANOMALY   = 297.1648

EPHEMERIS_TYPE = 0
CLASSIFICATION_TYPE = U
NORAD_CAT_ID   = 67666
ELEMENT_SET_NO = 999
REV_AT_EPOCH   = 324
BSTAR          = .20941074E-2
MEAN_MOTION_DOT = .32603E-2
MEAN_MOTION_DDOT = 0

CCSDS_OMM_VERS = 2.0
CREATION_DATE  = 
ORIGINATOR     = 

OBJECT_NAME    = STARLINK-36622
OBJECT_ID      = 2026-022V
CENTER_NAME    = EARTH
REF_FRAME      = TEME
TIME_SYSTEM    = UTC
MEAN_ELEMENT_THEORY = SGP/SGP4

EPOCH          = 2026-02-23T08:17:46.527360
MEAN_MOTION    = 15.75277353
ECCENTRICITY   = .00026734
INCLINATION    = 97.2849
RA_OF_ASC_NODE = 87.6565
ARG_OF_PERICENTER = 95.9198
MEAN_ANOMALY   = 264.2372

EPHEMERIS_TYPE = 0
CLASSIFICATION_TYPE = U
NORAD_CAT_ID   = 67667
ELEMENT_SET_NO = 999
REV_AT_EPOCH   = 329
BSTAR          = .19006088E-2
MEAN_MOTION_DOT = .294476E-2
MEAN_MOTION_DDOT = 0

CCSDS_OMM_VERS = 2.0
CREATION_DATE  = 
ORIGINATOR     = 

OBJECT_NAME    = STARLINK-36625
OBJECT_ID      = 2026-022W
CENTER_NAME    = EARTH
REF_FRAME      = TEME
TIME_SYSTEM    = UTC
MEAN_ELEMENT_THEORY = SGP/SGP4

EPOCH          = 2026-02-23T02:09:49.127616
MEAN_MOTION    = 15.75193324
ECCENTRICITY   = .00018193
INCLINATION    = 97.2854
RA_OF_ASC_NODE = 87.3909
ARG_OF_PERICENTER = 98.2779
MEAN_ANOMALY   = 261.8693

EPHEMERIS_TYPE = 0
CLASSIFICATION_TYPE = U
NORAD_CAT_ID   = 67668
ELEMENT_SET_NO = 999
REV_AT_EPOCH   = 325
BSTAR          = .27591845E-3
MEAN_MOTION_DOT = .41232E-3
MEAN_MOTION_DDOT = 0

CCSDS_OMM_VERS = 2.0
CREATION_DATE  = 
ORIGINATOR     = 

OBJECT_NAME    = STARLINK-36639
OBJECT_ID      = 2026-022X
CENTER_NAME    = EARTH
REF_FRAME      = TEME
TIME_SYSTEM    = UTC
MEAN_ELEMENT_THEORY = SGP/SGP4

EPOCH          = 2026-02-23T12:47:39.192864
MEAN_MOTION    = 15.75320217
ECCENTRICITY   = .00014124
INCLINATION    = 97.2852
RA_OF_ASC_NODE = 87.8607
ARG_OF_PERICENTER = 77.2894
MEAN_ANOMALY   = 282.8530

EPHEMERIS_TYPE = 0
CLASSIFICATION_TYPE = U
NORAD_CAT_ID   = 67669
ELEMENT_SET_NO = 999
REV_AT_EPOCH   = 332
BSTAR          = .27598898E-2
MEAN_MOTION_DOT = .435694E-2
MEAN_MOTION_DDOT = 0

CCSDS_OMM_VERS = 2.0
CREATION_DATE  = 
ORIGINATOR     = 

OBJECT_NAME    = STARLINK-36596
OBJECT_ID      = 2026-022Y
CENTER_NAME    = EARTH
REF_FRAME      = TEME
TIME_SYSTEM    = UTC
MEAN_ELEMENT_THEORY = SGP/SGP4

EPOCH          = 2026-02-23T12:45:06.204384
MEAN_MOTION    = 15.75253129
ECCENTRICITY   = .0000366
INCLINATION    = 97.2854
RA_OF_ASC_NODE = 87.8627
ARG_OF_PERICENTER = 181.4785
MEAN_ANOMALY   = 178.6479

EPHEMERIS_TYPE = 0
CLASSIFICATION_TYPE = U
NORAD_CAT_ID   = 67670
ELEMENT_SET_NO = 999
REV_AT_EPOCH   = 332
BSTAR          = .18143545E-2
MEAN_MOTION_DOT = .280346E-2
MEAN_MOTION_DDOT = 0

CCSDS_OMM_VERS = 2.0
CREATION_DATE  = 
ORIGINATOR     = 

OBJECT_NAME    = STARLINK-36297
OBJECT_ID      = 2026-022Z
CENTER_NAME    = EARTH
REF_FRAME      = TEME
TIME_SYSTEM    = UTC
MEAN_ELEMENT_THEORY = SGP/SGP4

EPOCH          = 2026-02-23T12:42:02.942208
MEAN_MOTION    = 15.75287477
ECCENTRICITY   = .00017408
INCLINATION    = 97.2855
RA_OF_ASC_NODE = 87.8654
ARG_OF_PERICENTER = 264.7573
MEAN_ANOMALY   = 95.3493

EPHEMERIS_TYPE = 0
CLASSIFICATION_TYPE = U
NORAD_CAT_ID   = 67671
ELEMENT_SET_NO = 999
REV_AT_EPOCH   = 332
BSTAR          = .22128789E-2
MEAN_MOTION_DOT = .34508E-2
MEAN_MOTION_DDOT = 0

